ONEWEB-0205             
1 48226U 21031S   25351.90131020 -.00000004  00000+0 -45222-4 0  9995
2 48226  87.8996 325.8119 0001598  85.1533 274.9779 13.14503765224455
ONEWEB-0206             
1 48227U 21031T   25351.87436448 -.00000081  00000+0 -25361-3 0  9990
2 48227  87.9006 325.8086 0002046  81.5456 278.5906 13.14502267224408
ONEWEB-0182             
1 48228U 21031U   25351.86959849 -.00000078  00000+0 -24363-3 0  9992
2 48228  87.8985 325.8370 0001788  91.8058 268.3277 13.14503611224619
ONEWEB-0186             
1 48229U 21031V   25351.88069519 -.00000177  00000+0 -51060-3 0  9995
2 48229  87.9000 325.8123 0001667  84.2261 275.9059 13.14504117224561
ONEWEB-0181             
1 48230U 21031W   25351.47790556  .00000116  00000+0  27750-3 0  9994
2 48230  87.8985 325.9460 0001633  80.8493 279.2821 13.14503390224365
ONEWEB-0188             
1 48231U 21031X   25351.89654181 -.00000090  00000+0 -27843-3 0  9990
2 48231  87.8984 325.8596 0001788  85.7114 274.4220 13.14505063224324
ONEWEB-0220             
1 48232U 21031Y   25351.63172663  .00000185  00000+0  46335-3 0  9993
2 48232  87.9001 325.8612 0001557  88.6520 271.4788 13.14504361224553
ONEWEB-0165             
1 48233U 21031Z   25351.88863130 -.00000153  00000+0 -44652-3 0  9994
2 48233  87.8983 325.8362 0001647  74.2321 285.8991 13.14504195224543
